[{"meetingID":"33","streetAddress":"701 West 168th Street","city":"New York","state":"NY","zipCode":"10032","lat":"40.8620908","lng":"-73.918918","buildingName":"Columbia Presbyterian Hospital","wheelChairAccess":true,"roomFloor":"","detailsBox":"Check with Security for Room # T Last Thu, Living Sober & Anniv Last Fri. No meetings on public holidays"},{"meetingID":"65","streetAddress":"715 West 179th Street","city":"New York","state":"NY","zipCode":"10033","lat":"40.8424566","lng":"-73.9424508","buildingName":"Holy Rood Church","wheelChairAccess":false,"roomFloor":"","detailsBox":"Living Sober Last Tuesday, T Last Wednesday"},{"meetingID":"820","streetAddress":"715 West 179th Street","city":"New York","state":"NY","zipCode":"10040","lat":"40.8492702","lng":"-73.9382266","buildingName":"Holy Rood Church","wheelChairAccess":true,"roomFloor":"","detailsBox":"10th Step"},{"meetingID":"138","streetAddress":"431 West 204th Street","city":"New York","state":"NY","zipCode":"10034","lat":"40.8492702","lng":"-73.9382266","buildingName":"St. Judes School","wheelChairAccess":false,"roomFloor":"Basement","detailsBox":"BB 1st & T Last Wed."},{"meetingID":"158","streetAddress":"550 West 155th Street","city":"New York","state":"NY","zipCode":"10032","lat":"40.8321897","lng":"-73.945059","buildingName":"Church of the Intercession","wheelChairAccess":false,"roomFloor":"2nd Floor Guild Room","detailsBox":"Mens meeting & Gay mens focus. All are welcome. Anniversary last Sat., 1st Sat.=S followed by Bus. Mtg."},{"meetingID":"174","streetAddress":"557 West 156th Street","city":"New York","state":"NY","zipCode":"10032","lat":"40.8333254","lng":"-73.9446563","buildingName":"Casita Esperanza","wheelChairAccess":true,"roomFloor":"NY","detailsBox":"Spanish Speaking Meetings."},{"meetingID":"179","streetAddress":"35 Thayer Street","city":"New York","state":"NY","zipCode":"10040","lat":"40.8626147","lng":"-73.9263819","buildingName":"","wheelChairAccess":true,"roomFloor":"Basement","detailsBox":"Spanish speaking meetings."},{"meetingID":"180","streetAddress":"715 West 179th Street","city":"New York","state":"NY","zipCode":"10033","lat":"40.8492702","lng":"-73.9382266","buildingName":"Episcopal Holy Rood Church","wheelChairAccess":true,"roomFloor":"1st Floor \n\t\t\t\t\t\tNY","detailsBox":"Spanish speaking meetings."},{"meetingID":"182","streetAddress":"502 West 165th Street","city":"New York","state":"NY","zipCode":"10032","lat":"40.8378476619065","lng":"-73.9384773058967","buildingName":"Church Santa Rosa de Lima","wheelChairAccess":false,"roomFloor":"Basement","detailsBox":"Spanish speaking meetings."},{"meetingID":"216","streetAddress":"91 Arden Street","city":"New York","state":"NY","zipCode":"10034","lat":"40.8639073","lng":"-73.9282532","buildingName":"Our Lady Queen of Martyrs","wheelChairAccess":false,"roomFloor":"","detailsBox":"Spanish Speaking Meetings."},{"meetingID":"1477","streetAddress":"20 Cumming Street","city":"New York","state":"NY","zipCode":"10034","lat":"40.8664723","lng":"-73.9264521","buildingName":"Holy Trinity Episcopal Church","wheelChairAccess":false,"roomFloor":"","detailsBox":"LGBT All welcome. Sun= As Bill See it; Wed=Steps1-3 Sun.meeting in Sanctuary; Wed meeting in Auditorium"},{"meetingID":"226","streetAddress":"84 Vermilyea Avenue","city":"New York","state":"NY","zipCode":"10034","lat":"40.86596","lng":"-73.9231447","buildingName":"Mount Washington Presbyterian Church","wheelChairAccess":false,"roomFloor":"","detailsBox":"Sat. Closed meeting rotating step/speaker/trad/anniversary In Dec. first two weeks will be Step meeting"},{"meetingID":"227","streetAddress":"620 Isham Street","city":"New York","state":"NY","zipCode":"10034","lat":"40.8692449","lng":"-73.9206611","buildingName":"Church of the Good Shepherd","wheelChairAccess":false,"roomFloor":"","detailsBox":"Open Anniv. Last Mon."},{"meetingID":"1553","streetAddress":"2005 Amsterdam Avenue","city":"New York","state":"NY","zipCode":"10032","lat":"40.8342553","lng":"-73.9407968","buildingName":"COATHA Church on the Hill Senior Center","wheelChairAccess":true,"roomFloor":"","detailsBox":"Open Discussion 1st, 2nd, 4th,and 5th when applicable. OPEN meeting is 3rd Fridays"},{"meetingID":"827","streetAddress":"178 Bennett Avenue","city":"New York","state":"NY","zipCode":"10040","lat":"40.8560069","lng":"-73.9342762","buildingName":"Our Saviours Atonement Lutheran Church","wheelChairAccess":false,"roomFloor":"2nd Floor (Lorenz Library)","detailsBox":"Mens Meeting"},{"meetingID":"256","streetAddress":"178 Bennett Avenue","city":"New York","state":"NY","zipCode":"10040","lat":"40.8560069","lng":"-73.9342762","buildingName":"Our Saviours Atonement Church","wheelChairAccess":false,"roomFloor":"2nd Floor","detailsBox":"1st- Step, 2nd-OD, 3rd-Beg., 4th- BB, 5th- OD"},{"meetingID":"395","streetAddress":"91 Arden Street","city":"New York","state":"NY","zipCode":"10034","lat":"40.8639073","lng":"-73.9282532","buildingName":"Our Lady Queen of Martyrs","wheelChairAccess":false,"roomFloor":"","detailsBox":""},{"meetingID":"396","streetAddress":"20 Cummings Street","city":"New York","state":"NY","zipCode":"10034","lat":"40.8664723","lng":"-73.9264521","buildingName":"Holy Trinity Church","wheelChairAccess":false,"roomFloor":"","detailsBox":""},{"meetingID":"399","streetAddress":"715 West 179th Street","city":"New York","state":"NY","zipCode":"10033","lat":"40.8492702","lng":"-73.9382266","buildingName":"Holy Rood Church","wheelChairAccess":true,"roomFloor":"","detailsBox":""},{"meetingID":"400","streetAddress":"189th Street & Bennett Avenue","city":"New York","state":"NY","zipCode":"10040","lat":"40.6639307188879","lng":"-73.9382749875207","buildingName":"Cornerstone Center","wheelChairAccess":false,"roomFloor":"Kitchen","detailsBox":""},{"meetingID":"414","streetAddress":"178 Bennett Avenue","city":"New York","state":"NY","zipCode":"10040","lat":"40.8560069","lng":"-73.9342762","buildingName":"The Corner Stone Center","wheelChairAccess":false,"roomFloor":"2nd Floor","detailsBox":""}]