[{"meetingID":"159","streetAddress":"252 West 46th Street","city":"New York","state":"NY","zipCode":"10036","lat":"40.7591895426735","lng":"-73.9867385774772","buildingName":"46th Street Club House","wheelChairAccess":false,"roomFloor":"3rd Floor","detailsBox":""},{"meetingID":"29","streetAddress":"303 West 42nd Street","city":"New York","state":"NY","zipCode":"10036","lat":"40.7573472021927","lng":"-73.9898278386809","buildingName":"","wheelChairAccess":false,"roomFloor":"Room #404","detailsBox":"Sat=A.A. Literature"},{"meetingID":"1146","streetAddress":"303 West 42nd Street","city":"New York","state":"NY","zipCode":"10036","lat":"40.7573472021927","lng":"-73.9898278386809","buildingName":"","wheelChairAccess":false,"roomFloor":"3rd Floor Room #306","detailsBox":"Sun=11th Step, Wed=Gratitude, Thu=Daily Reflections"},{"meetingID":"39","streetAddress":"305 7th Avenue","city":"New York","state":"NY","zipCode":"10001","lat":"40.746749730357","lng":"-73.9936042690094","buildingName":"S.A.G.E.","wheelChairAccess":true,"roomFloor":"6th Floor","detailsBox":""},{"meetingID":"582","streetAddress":"1 West 53rd Street","city":"New York","state":"NY","zipCode":"10019","lat":"40.7605078757684","lng":"-73.9758124645304","buildingName":"Saint Thomas Church","wheelChairAccess":true,"roomFloor":"3rd Floor Andrew Hall","detailsBox":"Gay & Lesbian Focus.  All are welcome."},{"meetingID":"44","streetAddress":"303 West 42nd Street","city":"New York","state":"NY","zipCode":"10036","lat":"40.7573472021927","lng":"-73.9898278386809","buildingName":"","wheelChairAccess":false,"roomFloor":"3rd Floor Room #306","detailsBox":"Sun.2pm=Womens Meeting"},{"meetingID":"47","streetAddress":"133 West 46th Street","city":"New York","state":"NY","zipCode":"10036","lat":"40.7578644754971","lng":"-73.9831494978391","buildingName":"St. Mary the Virgin Church","wheelChairAccess":false,"roomFloor":"3rd Floor","detailsBox":"T Last Thursday All meetings are non-smoking."},{"meetingID":"49","streetAddress":"441 West 26th Street","city":"New York","state":"NY","zipCode":"10001","lat":"40.7491018941578","lng":"-74.001388696334","buildingName":"Hudson Guild","wheelChairAccess":true,"roomFloor":"2nd Floor Activity Room A","detailsBox":""},{"meetingID":"50","streetAddress":"446 West 33rd Street","city":"New York","state":"NY","zipCode":"10001","lat":"40.7534748563734","lng":"-73.9988113218168","buildingName":"GMHC","wheelChairAccess":true,"roomFloor":"6th Floor Room #6046","detailsBox":"Gay & Lesbian focus.  All are welcome."},{"meetingID":"1208","streetAddress":"252 West 46th Street","city":"New York","state":"NY","zipCode":"10036","lat":"40.7591895426735","lng":"-73.9867385774772","buildingName":"46th Street Clubhouse","wheelChairAccess":false,"roomFloor":"3rd Floor","detailsBox":"All are welcome."},{"meetingID":"569","streetAddress":"252 West 46th Street","city":"New York","state":"NY","zipCode":"10036","lat":"40.7591895426735","lng":"-73.9867385774772","buildingName":"46th Street Club House","wheelChairAccess":false,"roomFloor":"3rd Floor","detailsBox":"Readings from Living Sober"},{"meetingID":"571","streetAddress":"252 West 46th Street","city":"New York","state":"NY","zipCode":"10036","lat":"40.7591895426735","lng":"-73.9867385774772","buildingName":"46th Street Club House","wheelChairAccess":false,"roomFloor":"3rd Floor","detailsBox":""},{"meetingID":"60","streetAddress":"339 West 47th Street","city":"New York","state":"NY","zipCode":"10036","lat":"40.7609549990382","lng":"-73.9885447699323","buildingName":"The Actors Temple","wheelChairAccess":false,"roomFloor":"","detailsBox":"Non-Smoking Meeting."},{"meetingID":"1449","streetAddress":"303 West 42nd St ","city":"New York","state":"NY","zipCode":"10036","lat":"40.7573472021927","lng":"-73.9898278386809","buildingName":"","wheelChairAccess":false,"roomFloor":"","detailsBox":""},{"meetingID":"62","streetAddress":"139 West 31st Street","city":"New York","state":"NY","zipCode":"10001","lat":"40.7484468866129","lng":"-73.9902352468194","buildingName":"St. Francis of Assisi Education Center","wheelChairAccess":false,"roomFloor":"3rd Floor","detailsBox":"No Meeting on Legal Holidays All meetings are non-smoking."},{"meetingID":"113","streetAddress":"422 West 57th Street","city":"New York","state":"NY","zipCode":"10019","lat":"40.7681070513278","lng":"-73.9863970797226","buildingName":"Trinity Presbyterian Church","wheelChairAccess":false,"roomFloor":"Upstairs","detailsBox":""},{"meetingID":"131","streetAddress":"211 West 30th Street","city":"New York","state":"NY","zipCode":"10001","lat":"40.7486793956479","lng":"-73.9927286472649","buildingName":"St. Johns Hall","wheelChairAccess":false,"roomFloor":"","detailsBox":""},{"meetingID":"135","streetAddress":"252 West 46th Street","city":"New York","state":"NY","zipCode":"10036","lat":"40.7591895426735","lng":"-73.9867385774772","buildingName":"46th Street Club House","wheelChairAccess":false,"roomFloor":"3rd Floor","detailsBox":"Womens Meeting"},{"meetingID":"1048","streetAddress":"1 West 53rd Street","city":"New York","state":"NY","zipCode":"10019","lat":"40.7605078757684","lng":"-73.9758124645304","buildingName":"St. Thomas Church","wheelChairAccess":true,"roomFloor":"3rd Floor","detailsBox":""},{"meetingID":"153","streetAddress":"422 West 57th Street","city":"New York","state":"NY","zipCode":"10019","lat":"40.7681070513278","lng":"-73.9863970797226","buildingName":"Trinity Presbyterian Church","wheelChairAccess":false,"roomFloor":"","detailsBox":"Tue.12:30 = T 1st Tuesday Beginners upstairs; other meetings in the chapel"},{"meetingID":"156","streetAddress":"7 West 55th Street","city":"New York","state":"NY","zipCode":"10019","lat":"40.7618390938974","lng":"-73.975091742462","buildingName":"Fifth Av Presbyterian Church","wheelChairAccess":true,"roomFloor":"5th Floor","detailsBox":"Monday thru Thursday Beginners Meeting 5th floor Monday thru Thursday Open Discussion 3rd floor Wednesday Step Meeting"},{"meetingID":"157","streetAddress":"252 West 46th Street","city":"New York","state":"NY","zipCode":"10036","lat":"40.7591895426735","lng":"-73.9867385774772","buildingName":"46th Street Club House","wheelChairAccess":false,"roomFloor":"","detailsBox":""},{"meetingID":"169","streetAddress":"729 7th Avenue","city":"New York","state":"NY","zipCode":"10019","lat":"40.760037679013","lng":"-73.9839212337742","buildingName":"The Actors Fund of America","wheelChairAccess":true,"roomFloor":"10th Floor small conference room","detailsBox":"Focus is on those in the entertainment industry.  All are welcome. As Bill Sees It"},{"meetingID":"171","streetAddress":"538 West 47th Street","city":"New York","state":"NY","zipCode":"10036","lat":"40.763245485234","lng":"-73.9944361996955","buildingName":"Apartment Building","wheelChairAccess":false,"roomFloor":"","detailsBox":"All meetings are Open Discussion format."},{"meetingID":"220","streetAddress":"1000 Tenth Avenue","city":"New York","state":"NY","zipCode":"10019","lat":"40.7700536177104","lng":"-73.9877635987168","buildingName":"Mount Sinai - Roosevelt Hospital","wheelChairAccess":true,"roomFloor":"8th Floor Room #8G49","detailsBox":"Anniv. 1st Monday, T 2nd & S Last Thursday, NOTE: On legal holidays, the meeting meets on the 1st Floor (Ask for the room at the reception desk)"},{"meetingID":"221","streetAddress":"303 West 42nd Street","city":"New York","state":"NY","zipCode":"10036","lat":"40.7573472021927","lng":"-73.9898278386809","buildingName":"","wheelChairAccess":false,"roomFloor":"3rd Floor Room #306","detailsBox":""},{"meetingID":"572","streetAddress":"252 West 46th Street","city":"New York","state":"NY","zipCode":"10036","lat":"40.7591895426735","lng":"-73.9867385774772","buildingName":"46th Street Club House","wheelChairAccess":false,"roomFloor":"3rd Floor","detailsBox":"Big Book Workshop"},{"meetingID":"231","streetAddress":"307 West 26th Street","city":"New York","state":"NY","zipCode":"10001","lat":"40.7473708388913","lng":"-73.9972612945271","buildingName":"Upright Citizens Brigade Theatre","wheelChairAccess":false,"roomFloor":"","detailsBox":"All meetings are non-smoking."},{"meetingID":"1450","streetAddress":"405 West 59th Street","city":"New York","state":"NY","zipCode":"10019","lat":"40.7697787078634","lng":"-73.9858686267659","buildingName":"St. Pauls Episcopal Parish House","wheelChairAccess":true,"roomFloor":"","detailsBox":"Room LL2"},{"meetingID":"253","streetAddress":"303 West 42nd Street","city":"New York","state":"NY","zipCode":"10036","lat":"40.7573472021927","lng":"-73.9898278386809","buildingName":"","wheelChairAccess":false,"roomFloor":"","detailsBox":"T Last Sunday, Mon=Came To Believe, Last Sat. Open Anniversary Last Sat. meets at 252 West 46th Street"},{"meetingID":"254","streetAddress":"422 West 57th Street","city":"New York","state":"NY","zipCode":"10019","lat":"40.7681070513278","lng":"-73.9863970797226","buildingName":"Trinity Presbyterian Church ","wheelChairAccess":true,"roomFloor":"","detailsBox":"Open on Holidays."},{"meetingID":"1200","streetAddress":"133 West 46th Street","city":"New York","state":"NY","zipCode":"10036","lat":"40.7578644754971","lng":"-73.9831494978391","buildingName":"St. Mary the Virgin Church","wheelChairAccess":false,"roomFloor":"3rd Floor","detailsBox":""},{"meetingID":"273","streetAddress":"133 West 46th Street","city":"New York","state":"NY","zipCode":"10036","lat":"40.7578644754971","lng":"-73.9831494978391","buildingName":"St. Mary the Virgin Church","wheelChairAccess":false,"roomFloor":"2nd & 3rd Floor","detailsBox":"Tue.Step=#s 4-7, Wed.5:30=Grapevine Topic, Thu.12:30 Step=#s 4-7 Thu.5:30=T last Thu.,Fri.BB=T last Fri. Fri.Step=#s 8-12"},{"meetingID":"561","streetAddress":"303 West 42nd Street","city":"New York","state":"NY","zipCode":"10036","lat":"40.7573472021927","lng":"-73.9898278386809","buildingName":"","wheelChairAccess":false,"roomFloor":"Room #306","detailsBox":""},{"meetingID":"285","streetAddress":"296 9th Avenue","city":"New York","state":"NY","zipCode":"10001","lat":"40.7493642017494","lng":"-73.9991233310954","buildingName":"Holy Apostles Church Rectory","wheelChairAccess":false,"roomFloor":"2nd Floor","detailsBox":"Business meeting held on 1st Monday at 7:45pm LGBTQ Friendly.  All are welcome."},{"meetingID":"287","streetAddress":"139 West 31st Street","city":"New York","state":"NY","zipCode":"10001","lat":"40.7484468866129","lng":"-73.9902352468194","buildingName":"St. Francis of Assisi Center","wheelChairAccess":false,"roomFloor":"3rd Floor","detailsBox":"All meetings are non-smoking."},{"meetingID":"1400","streetAddress":"1 West 53rd Street","city":"New York","state":"NY","zipCode":"10019","lat":"40.7605078757684","lng":"-73.9758124645304","buildingName":"St. Thomas Church","wheelChairAccess":true,"roomFloor":"3rd Floor","detailsBox":""},{"meetingID":"302","streetAddress":"484 West 43rd Street","city":"New York","state":"NY","zipCode":"10036","lat":"40.7600416876915","lng":"-73.9946015443691","buildingName":"Manhattan Plaza Health Club","wheelChairAccess":true,"roomFloor":"1st Floor","detailsBox":"Fri=Living Sober, Sat=Promises"},{"meetingID":"304","streetAddress":"7 West 55th Street","city":"New York","state":"NY","zipCode":"10019","lat":"40.7618390938974","lng":"-73.975091742462","buildingName":"Fifth Av Presbyterian Church","wheelChairAccess":true,"roomFloor":"","detailsBox":""},{"meetingID":"568","streetAddress":"252 West 46th Street","city":"New York","state":"NY","zipCode":"10036","lat":"40.7591895426735","lng":"-73.9867385774772","buildingName":"46th Street Club House","wheelChairAccess":false,"roomFloor":"3rd Floor","detailsBox":""},{"meetingID":"307","streetAddress":"252 West 46th Street","city":"New York","state":"NY","zipCode":"10036","lat":"40.7591895426735","lng":"-73.9867385774772","buildingName":"46th Street Club House","wheelChairAccess":false,"roomFloor":"3rd Floor","detailsBox":"Gay, Lesbian, Bisexual & Transgender Focus.  All are welcome. Last Saturday of month=\"Open Anniversary\""},{"meetingID":"312","streetAddress":"4 West 43rd Street","city":"New York","state":"NY","zipCode":"10017","lat":"40.7541070968091","lng":"-73.9805131973307","buildingName":"The Learning Center","wheelChairAccess":true,"roomFloor":"","detailsBox":""},{"meetingID":"573","streetAddress":"252 West 46th Street","city":"New York","state":"NY","zipCode":"10036","lat":"40.7591895426735","lng":"-73.9867385774772","buildingName":"46th Street Club House","wheelChairAccess":false,"roomFloor":"3rd Floor","detailsBox":"Rotating Step meeting."},{"meetingID":"1356","streetAddress":"296 Ninth Avenue","city":"New York","state":"NY","zipCode":"10001","lat":"40.8228042471098","lng":"-73.8091987304391","buildingName":"Church of The Holy Apostles","wheelChairAccess":false,"roomFloor":"Rectory 1st Floor","detailsBox":"Topic meeting, focus is on Spirituality"},{"meetingID":"364","streetAddress":"1 West 53rd Street","city":"New York","state":"NY","zipCode":"10019","lat":"40.7605078757684","lng":"-73.9758124645304","buildingName":"St. Thomas Church Parish House","wheelChairAccess":false,"roomFloor":"3rd Floor","detailsBox":"Round Robin Meeting."},{"meetingID":"365","streetAddress":"210 West 31st Street","city":"New York","state":"NY","zipCode":"10001","lat":"40.7491443998598","lng":"-73.9923418714109","buildingName":"St. John the Baptist Church","wheelChairAccess":false,"roomFloor":"Basement (On Left)","detailsBox":"T Last Thursday; S other Thursdays All meetings are non-smoking."},{"meetingID":"142","streetAddress":"422 West 57th Street","city":"New York","state":"NY","zipCode":"10019","lat":"40.7681070513278","lng":"-73.9863970797226","buildingName":"Trinity Presbyterian Church","wheelChairAccess":false,"roomFloor":"","detailsBox":"T-1st Wednesday"},{"meetingID":"574","streetAddress":"252 West 46th Street","city":"New York","state":"NY","zipCode":"10036","lat":"40.7591895426735","lng":"-73.9867385774772","buildingName":"46th Street Club House","wheelChairAccess":false,"roomFloor":"3rd Floor","detailsBox":""},{"meetingID":"1481","streetAddress":"134 West 29th Street ","city":"New York","state":"NY","zipCode":"10001","lat":"40.7469927833142","lng":"-73.9910926609818","buildingName":"","wheelChairAccess":true,"roomFloor":"2nd floor Studio 203","detailsBox":"Agnostic- no prayer"},{"meetingID":"408","streetAddress":"1000 Tenth Avenue","city":"New York","state":"NY","zipCode":"10019","lat":"40.7700536177104","lng":"-73.9877635987168","buildingName":"Mount Sinai - Roosevelt Hospital","wheelChairAccess":true,"roomFloor":"8th Floor Room #8G-49","detailsBox":""},{"meetingID":"419","streetAddress":"446 West 33rd Street","city":"New York","state":"NY","zipCode":"10001","lat":"40.7534748563734","lng":"-73.9988113218168","buildingName":"GMHC","wheelChairAccess":true,"roomFloor":"","detailsBox":"S 1st, C 2nd, BB 3rd, O Anniversary Meeting 4th Friday Womens Meeting."},{"meetingID":"436","streetAddress":"423 West 46th Street","city":"New York","state":"NY","zipCode":"10036","lat":"40.7614822876876","lng":"-73.9917070561952","buildingName":"St. Clements Church","wheelChairAccess":true,"roomFloor":"","detailsBox":""}]