[
  {
    "meetingID": "38",
    "streetAddress": "273 Bowery",
    "buildingName": "University Settlement",
    "wheelChairAccess": true,
    "roomFloor": "Downstairs",
    "city": "New York",
    "state": "NY",
    "zipCode": "10002",
    "detailsBox": ""
  },
  {
    "meetingID": "42",
    "streetAddress": "232 West 11th Street",
    "buildingName": "Manhattan Seventh-Day Adventist Church",
    "wheelChairAccess": false,
    "roomFloor": "",
    "city": "New York",
    "state": "NY",
    "zipCode": "10014",
    "detailsBox": ""
  },
  {
    "meetingID": "1539",
    "streetAddress": "283 West Broadway",
    "buildingName": "Hazelden Center",
    "wheelChairAccess": true,
    "roomFloor": "",
    "city": "New York",
    "state": "NY",
    "zipCode": "10013",
    "detailsBox": "Sex inventory 4th step literature meeting Meets 1st and 3rd Saturday of the month from noon-1"
  },
  {
    "meetingID": "1515",
    "streetAddress": "232 West 11th Street",
    "buildingName": "Seventh Day Adventist Church",
    "wheelChairAccess": false,
    "roomFloor": "",
    "city": "New York",
    "state": "NY",
    "zipCode": "10014",
    "detailsBox": ""
  },
  {
    "meetingID": "59",
    "streetAddress": "220 West Houston Street",
    "buildingName": "",
    "wheelChairAccess": false,
    "roomFloor": "2nd Floor",
    "city": "New York",
    "state": "NY",
    "zipCode": "10014",
    "detailsBox": "NOTE: Meeting only meets on the 1st & 3rd Sunday of each month Big Book Workshop, Meeting ends at Noon."
  },
  {
    "meetingID": "1415",
    "streetAddress": "253 Center Street",
    "buildingName": "Golden Bridge Yoga Center",
    "wheelChairAccess": false,
    "roomFloor": "3rd Floor",
    "city": "New York",
    "state": "NY",
    "zipCode": "10013",
    "detailsBox": "No shoes worn in meeting location. A short meditation opens the meeting."
  },
  {
    "meetingID": "353",
    "streetAddress": "273 Bowery",
    "buildingName": "University Settlement (The Chinatown YMCA)",
    "wheelChairAccess": true,
    "roomFloor": "",
    "city": "New York",
    "state": "NY",
    "zipCode": "10002",
    "detailsBox": "Ask front desk for meeting location"
  },
  {
    "meetingID": "170",
    "streetAddress": "487 Hudson Street",
    "buildingName": "St. Lukes Episcopal School",
    "wheelChairAccess": false,
    "roomFloor": "Basement",
    "city": "New York",
    "state": "NY",
    "zipCode": "10014",
    "detailsBox": "Mon.Step=Rotates Steps 1,2&3, Fri.= T. Last Friday. Parents with children are welcome."
  },
  {
    "meetingID": "173",
    "streetAddress": "292 Henry Street",
    "buildingName": "St. Augustines Church",
    "wheelChairAccess": true,
    "roomFloor": "Basement",
    "city": "New York",
    "state": "NY",
    "zipCode": "10002",
    "detailsBox": "Spanish speaking meetings."
  },
  {
    "meetingID": "217",
    "streetAddress": "232 West 11th Street",
    "buildingName": "Manhattan Church of The Seventh-day Adventist",
    "wheelChairAccess": true,
    "roomFloor": "",
    "city": "New York",
    "state": "NY",
    "zipCode": "10014",
    "detailsBox": "Topic Meeting for gay men approaching and over 40. All are welcome."
  },
  {
    "meetingID": "737",
    "streetAddress": "141 Henry Street",
    "buildingName": "Church of Saint Theresa Rectory",
    "wheelChairAccess": false,
    "roomFloor": "1st Floor",
    "city": "New York",
    "state": "NY",
    "zipCode": "10002",
    "detailsBox": ""
  },
  {
    "meetingID": "251",
    "streetAddress": "220 West Houston Street",
    "buildingName": "",
    "wheelChairAccess": false,
    "roomFloor": "2nd Floor",
    "city": "New York",
    "state": "NY",
    "zipCode": "10014",
    "detailsBox": "Sun.12:30=Meditation, 2am Meetings=Pitch meeting with candlelight. Mon.8pm=Topic, Tues.10pm=T last Tues., Thu.10pm=Problems in Sobriety Sun.8pm=Bus.Meeting last Sun.,Sat.10pm=Anniv.Last"
  },
  {
    "meetingID": "277",
    "streetAddress": "83 Christopher Street,Red Door",
    "buildingName": "St. Johns Lutheran Church",
    "wheelChairAccess": false,
    "roomFloor": "Left of Church)",
    "city": "New York",
    "state": "NY",
    "zipCode": "10014",
    "detailsBox": "Gay & Lesbian focus.  All are welcome."
  },
  {
    "meetingID": "297",
    "streetAddress": "50 Perry Street",
    "buildingName": "",
    "wheelChairAccess": false,
    "roomFloor": "Ground Floor",
    "city": "New York",
    "state": "NY",
    "zipCode": "10014",
    "detailsBox": "No 8:30 or 10:15 1st Wed of month due to Bus. meeting Wed.10:15pm=No BB 1st Wed."
  },
  {
    "meetingID": "583",
    "streetAddress": "232 West 11th Street",
    "buildingName": "Seventh Day Adventist Church",
    "wheelChairAccess": false,
    "roomFloor": "",
    "city": "New York",
    "state": "NY",
    "zipCode": "10014",
    "detailsBox": ""
  },
  {
    "meetingID": "311",
    "streetAddress": "224 Waverly Place",
    "buildingName": "St. Johns Episcopal Church",
    "wheelChairAccess": false,
    "roomFloor": "1st floor event room",
    "city": "New York",
    "state": "NY",
    "zipCode": "10014",
    "detailsBox": "Fri.7:00pm=Promises Meeting All meetings are Gay & Lesbian focused.  All are welcome."
  },
  {
    "meetingID": "317",
    "streetAddress": "154 Sullivan Street",
    "buildingName": "St. Anthonys of Padua",
    "wheelChairAccess": false,
    "roomFloor": "",
    "city": "New York",
    "state": "NY",
    "zipCode": "10012",
    "detailsBox": "Wed.=Topic, Thu.=Promises & Fri.=T Last Fri."
  },
  {
    "meetingID": "835",
    "streetAddress": "273 Bowery Street",
    "buildingName": "Chinatown YMCA",
    "wheelChairAccess": true,
    "roomFloor": "",
    "city": "New York",
    "state": "NY",
    "zipCode": "10012",
    "detailsBox": ""
  },
  {
    "meetingID": "349",
    "streetAddress": "371 6th Avenue",
    "buildingName": "St. Josephs Church",
    "wheelChairAccess": true,
    "roomFloor": "Basement",
    "city": "New York",
    "state": "NY",
    "zipCode": "10014",
    "detailsBox": "Gay & Lesbian Focus.  All are welcome."
  },
  {
    "meetingID": "359",
    "streetAddress": "155 Sullivan Street",
    "buildingName": "St. Anthony of Padua Church",
    "wheelChairAccess": false,
    "roomFloor": "Basement",
    "city": "New York",
    "state": "NY",
    "zipCode": "10012",
    "detailsBox": "Mon.7pm=Anniv Last Mon., Fri.6:30pm=Interpreted for Deaf and Hard of Hearing. Friday Meeting occasionally changes the location;  please call New York Inter-Group to confirm meeting location."
  },
  {
    "meetingID": "361",
    "streetAddress": "7 East 10th Street",
    "buildingName": "The Bronfman Center @ NYU",
    "wheelChairAccess": false,
    "roomFloor": "",
    "city": "New York",
    "state": "NY",
    "zipCode": "10003",
    "detailsBox": "Lower level"
  },
  {
    "meetingID": "1456",
    "streetAddress": "232 West 11th Street",
    "buildingName": "Seventh Adventist Church",
    "wheelChairAccess": false,
    "roomFloor": "Basement",
    "city": "New York",
    "state": "NY",
    "zipCode": "null",
    "detailsBox": "Literature"
  },
  {
    "meetingID": "1542",
    "streetAddress": "81 Christopher Street",
    "buildingName": "St. Johns Lutheran Church",
    "wheelChairAccess": false,
    "roomFloor": "",
    "city": "New York",
    "state": "NY",
    "zipCode": "10014",
    "detailsBox": "The speaker will have 10+ years of sobriety. All welcome. Please ring Meeting Bell only"
  },
  {
    "meetingID": "1405",
    "streetAddress": "273 Bowery",
    "buildingName": "University Settlement (The Chinatown YMCA)",
    "wheelChairAccess": true,
    "roomFloor": "Downstairs",
    "city": "New York",
    "state": "NY",
    "zipCode": "10002",
    "detailsBox": "Mens Meeting"
  },
  {
    "meetingID": "1046",
    "streetAddress": "232 West 11th Street",
    "buildingName": "Manhattan Seventh-Day Adventist Church",
    "wheelChairAccess": false,
    "roomFloor": "",
    "city": "New York",
    "state": "NY",
    "zipCode": "10014",
    "detailsBox": ""
  },
  {
    "meetingID": "405",
    "streetAddress": "232 West 11th Street",
    "buildingName": "Manhattan Church of The Seventh-day Adventist",
    "wheelChairAccess": true,
    "roomFloor": "",
    "city": "New York",
    "state": "NY",
    "zipCode": "10014",
    "detailsBox": ""
  },
  {
    "meetingID": "410",
    "streetAddress": "83 Christopher Street",
    "buildingName": "St. Johns Lutheran Church",
    "wheelChairAccess": true,
    "roomFloor": "Basement",
    "city": "New York",
    "state": "NY",
    "zipCode": "10014",
    "detailsBox": "Focus women 5+ years of sobriety. All are welcome. Enter through Red Door left of church, Buzzer-Meeting Room"
  },
  {
    "meetingID": "420",
    "streetAddress": "220 West Houston Street",
    "buildingName": "",
    "wheelChairAccess": false,
    "roomFloor": "2nd Floor",
    "city": "New York",
    "state": "NY",
    "zipCode": "10014",
    "detailsBox": "Womens Meeting"
  },
  {
    "meetingID": "422",
    "streetAddress": "273 Bowery",
    "buildingName": "University Settlement @ Houston Street Center",
    "wheelChairAccess": true,
    "roomFloor": "Classroom Floor",
    "city": "New York",
    "state": "NY",
    "zipCode": "10002",
    "detailsBox": "Womens Meeting Lesbian focus.  All are welcome."
  }
]