[
  {
    "meetingID": "34",
    "streetAddress": "207 West 96th Street",
    "buildingName": "Holy Name Church",
    "wheelChairAccess": false,
    "roomFloor": "Basement",
    "city": "New York",
    "state": "NY",
    "zipCode": "10025",
    "detailsBox": "Mon=As Bill Sees It, Wed=Living Sober"
  },
  {
    "meetingID": "35",
    "streetAddress": "120 West 69th Street",
    "buildingName": "Christ & St. Stephens Church",
    "wheelChairAccess": false,
    "roomFloor": "Basement",
    "city": "New York",
    "state": "NY",
    "zipCode": "10023",
    "detailsBox": ""
  },
  {
    "meetingID": "41",
    "streetAddress": "422 West 57th Street",
    "buildingName": "Trinity Presbyterian Church",
    "wheelChairAccess": false,
    "roomFloor": "",
    "city": "New York",
    "state": "NY",
    "zipCode": "10023",
    "detailsBox": "Tues= AA Literature/Topic meeting The groups focus is on long-term sobriety; but all A.A. members are welcome."
  },
  {
    "meetingID": "1562",
    "streetAddress": "164 West 74th Street",
    "buildingName": "Phoenix House",
    "wheelChairAccess": true,
    "roomFloor": "1st floor",
    "city": "New York",
    "state": "NY",
    "zipCode": "10023",
    "detailsBox": ""
  },
  {
    "meetingID": "46",
    "streetAddress": "207 West 96th Street",
    "buildingName": "Holy Name Church",
    "wheelChairAccess": false,
    "roomFloor": "Little Room Basement",
    "city": "New York",
    "state": "NY",
    "zipCode": "10025",
    "detailsBox": ""
  },
  {
    "meetingID": "48",
    "streetAddress": "144 West 90th Street",
    "buildingName": "St. Gregorys Church",
    "wheelChairAccess": false,
    "roomFloor": "Basement",
    "city": "New York",
    "state": "NY",
    "zipCode": "10024",
    "detailsBox": "T - Last Friday, Anniversary-Last Saturday."
  },
  {
    "meetingID": "51",
    "streetAddress": "141 West 73rd Street",
    "buildingName": "Hamilton House",
    "wheelChairAccess": true,
    "roomFloor": "",
    "city": "New York",
    "state": "NY",
    "zipCode": "10023",
    "detailsBox": "Anniv. Meeting last Monday."
  },
  {
    "meetingID": "57",
    "streetAddress": "4 West 76th Street,Meeting in the gym.",
    "buildingName": "Fourth Universalist Church",
    "wheelChairAccess": false,
    "roomFloor": "",
    "city": "New York",
    "state": "NY",
    "zipCode": "10023",
    "detailsBox": "Alternating Step and Tradition meeting."
  },
  {
    "meetingID": "61",
    "streetAddress": "221 West 107th Street",
    "buildingName": "Church of the Ascension",
    "wheelChairAccess": false,
    "roomFloor": "Basement",
    "city": "New York",
    "state": "NY",
    "zipCode": "10025",
    "detailsBox": "All Meetings Are Non-Smoking. Anniversary meeting last Tues at 6:15"
  },
  {
    "meetingID": "66",
    "streetAddress": "207 West 96th Street",
    "buildingName": "Holy Name Church",
    "wheelChairAccess": false,
    "roomFloor": "Basement Little Room",
    "city": "New York",
    "state": "NY",
    "zipCode": "10025",
    "detailsBox": ""
  },
  {
    "meetingID": "67",
    "streetAddress": "215 West 82nd Street",
    "buildingName": "Holy Trinity Rectory",
    "wheelChairAccess": true,
    "roomFloor": "",
    "city": "New York",
    "state": "NY",
    "zipCode": "10024",
    "detailsBox": "Mens Meeting"
  },
  {
    "meetingID": "69",
    "streetAddress": "601 West 114th Street",
    "buildingName": "Broadway Presbyterian Church",
    "wheelChairAccess": false,
    "roomFloor": "(2nd Red Door) \n      NY",
    "city": "New York",
    "state": "NY",
    "zipCode": "10025",
    "detailsBox": ""
  },
  {
    "meetingID": "73",
    "streetAddress": "Central Park West & 76th Street ",
    "buildingName": "Universalist Church",
    "wheelChairAccess": false,
    "roomFloor": "basement gymnasium",
    "city": "New York",
    "state": "NY",
    "zipCode": "10023",
    "detailsBox": "T Last Thursday"
  },
  {
    "meetingID": "1423",
    "streetAddress": "5 West 63rd Street",
    "buildingName": "West Side YMCA at 63rd Street",
    "wheelChairAccess": true,
    "roomFloor": "Downstairs in large meeting room",
    "city": "New York",
    "state": "NY",
    "zipCode": "10023",
    "detailsBox": "10:15pm = Topic Meeting"
  },
  {
    "meetingID": "79",
    "streetAddress": "4 West 76th Street",
    "buildingName": "Universalist Church",
    "wheelChairAccess": false,
    "roomFloor": "(In the gym)",
    "city": "New York",
    "state": "NY",
    "zipCode": "10023",
    "detailsBox": "S 1st & T Last Friday"
  },
  {
    "meetingID": "110",
    "streetAddress": "160 Central Park West",
    "buildingName": "Fourth Universalist Society",
    "wheelChairAccess": false,
    "roomFloor": "Gym basement",
    "city": "New York",
    "state": "NY",
    "zipCode": "10023",
    "detailsBox": ""
  },
  {
    "meetingID": "108",
    "streetAddress": "152 West 66th Street",
    "buildingName": "Good Shepherd Faith Church",
    "wheelChairAccess": false,
    "roomFloor": "Basement Level Chapel",
    "city": "New York",
    "state": "NY",
    "zipCode": "10023",
    "detailsBox": "Enter basement level @ red door on left side of the building."
  },
  {
    "meetingID": "129",
    "streetAddress": "3 West 95th Street",
    "buildingName": "Second Presbyterian Church",
    "wheelChairAccess": false,
    "roomFloor": "Lower Level Auditorium",
    "city": "New York",
    "state": "NY",
    "zipCode": "10025",
    "detailsBox": "Children are welcome at all meetings. All meetings are non-smoking."
  },
  {
    "meetingID": "1552",
    "streetAddress": "251 West 80th Street",
    "buildingName": "All Angels Church",
    "wheelChairAccess": true,
    "roomFloor": "",
    "city": "New York",
    "state": "NY",
    "zipCode": "10024",
    "detailsBox": ""
  },
  {
    "meetingID": "148",
    "streetAddress": "111 West 71st Street",
    "buildingName": "Hargrave House",
    "wheelChairAccess": false,
    "roomFloor": "",
    "city": "New York",
    "state": "NY",
    "zipCode": "10023",
    "detailsBox": ""
  },
  {
    "meetingID": "149",
    "streetAddress": "5 West 63rd Street",
    "buildingName": "West Side YMCA",
    "wheelChairAccess": true,
    "roomFloor": "1st Floor",
    "city": "New York",
    "state": "NY",
    "zipCode": "10023",
    "detailsBox": ""
  },
  {
    "meetingID": "154",
    "streetAddress": "5 West 63rd Street",
    "buildingName": "West Side YMCA",
    "wheelChairAccess": false,
    "roomFloor": "",
    "city": "New York",
    "state": "NY",
    "zipCode": "10023",
    "detailsBox": "T 1st Saturday @ 12:30pm"
  },
  {
    "meetingID": "155",
    "streetAddress": "207 West 96th Street",
    "buildingName": "Holy Name Church",
    "wheelChairAccess": false,
    "roomFloor": "Basement Little Room",
    "city": "New York",
    "state": "NY",
    "zipCode": "10025",
    "detailsBox": "Last Sat. of month at 10:15 = anniversary meeting"
  },
  {
    "meetingID": "1202",
    "streetAddress": "26 West 84th Street",
    "buildingName": "Church of St. Matthew and St. Timothy",
    "wheelChairAccess": false,
    "roomFloor": "",
    "city": "New York",
    "state": "NY",
    "zipCode": "10024",
    "detailsBox": "MEETING NOW TAKES PLACE YEAR ROUND! Up concrete steps, take stairs on left, 2nd Floor (Sandford Hall)"
  },
  {
    "meetingID": "172",
    "streetAddress": "200 West 97th Street",
    "buildingName": "Holy Name School",
    "wheelChairAccess": false,
    "roomFloor": "Basement",
    "city": "New York",
    "state": "NY",
    "zipCode": "10025",
    "detailsBox": "Spanish speaking meetings."
  },
  {
    "meetingID": "176",
    "streetAddress": "218 West 108th Street",
    "buildingName": "Grace House",
    "wheelChairAccess": true,
    "roomFloor": "Main Floor",
    "city": "New York",
    "state": "NY",
    "zipCode": "10025",
    "detailsBox": "B Last Friday Bilingual (English-Spanish) Meetings."
  },
  {
    "meetingID": "1136",
    "streetAddress": "125 West 104th Street",
    "buildingName": "Iglesia Metodista Grace",
    "wheelChairAccess": true,
    "roomFloor": "1st Floor",
    "city": "New York",
    "state": "NY",
    "zipCode": "10025",
    "detailsBox": "Spanish speaking meeting."
  },
  {
    "meetingID": "218",
    "streetAddress": "141 West 73rd Street",
    "buildingName": "Hamilton House",
    "wheelChairAccess": true,
    "roomFloor": "",
    "city": "New York",
    "state": "NY",
    "zipCode": "10023",
    "detailsBox": ""
  },
  {
    "meetingID": "230",
    "streetAddress": "236 West 73rd Street",
    "buildingName": "Rutgers Church",
    "wheelChairAccess": true,
    "roomFloor": "5th Floor",
    "city": "New York",
    "state": "NY",
    "zipCode": "10023",
    "detailsBox": "Wed.6pm=Interpreted for the deaf and hard of hearing. Gay Men & Women Focus.  All are welcome."
  },
  {
    "meetingID": "244",
    "streetAddress": "165 West 105th Street",
    "buildingName": "West End Presbyterian Church",
    "wheelChairAccess": false,
    "roomFloor": "Basement",
    "city": "New York",
    "state": "NY",
    "zipCode": "10025",
    "detailsBox": ""
  },
  {
    "meetingID": "1436",
    "streetAddress": "207 West 96th Street",
    "buildingName": "Holy Name Church",
    "wheelChairAccess": false,
    "roomFloor": "",
    "city": "New York",
    "state": "NY",
    "zipCode": "10025",
    "detailsBox": ""
  },
  {
    "meetingID": "249",
    "streetAddress": "207 West 96th Street",
    "buildingName": "Holy Name Church Rectory",
    "wheelChairAccess": false,
    "roomFloor": "Basement Little Room",
    "city": "New York",
    "state": "NY",
    "zipCode": "10025",
    "detailsBox": "Mon=11th Step Meditation, Fri= Alt.Step & Tradition Meeting"
  },
  {
    "meetingID": "263",
    "streetAddress": "2504 Broadway",
    "buildingName": "Advent Lutheran Church",
    "wheelChairAccess": true,
    "roomFloor": "Basement",
    "city": "New York",
    "state": "NY",
    "zipCode": "10025",
    "detailsBox": "All meetings are non-smoking."
  },
  {
    "meetingID": "1468",
    "streetAddress": "405 West 114th Street",
    "buildingName": "Church of Notre Dame",
    "wheelChairAccess": true,
    "roomFloor": "Merton Room",
    "city": "New York",
    "state": "NY",
    "zipCode": "10025",
    "detailsBox": ""
  },
  {
    "meetingID": "270",
    "streetAddress": "368 West End Ave",
    "buildingName": "West End Collegiate Church",
    "wheelChairAccess": false,
    "roomFloor": "1st floor",
    "city": "New York",
    "state": "NY",
    "zipCode": "10024",
    "detailsBox": "All meetings are non-smoking."
  },
  {
    "meetingID": "281",
    "streetAddress": "225 West 99th Street",
    "buildingName": "St. Michaels Parish House",
    "wheelChairAccess": false,
    "roomFloor": "1st Floor",
    "city": "New York",
    "state": "NY",
    "zipCode": "10025",
    "detailsBox": "T 1st Monday Non-Smoking Meeting."
  },
  {
    "meetingID": "282",
    "streetAddress": "251 West 100th Street",
    "buildingName": "Anshe Chesed Synagogue",
    "wheelChairAccess": true,
    "roomFloor": "",
    "city": "New York",
    "state": "NY",
    "zipCode": "10025",
    "detailsBox": "Non-Smoking Meeting."
  },
  {
    "meetingID": "283",
    "streetAddress": "207 West 96th Street",
    "buildingName": "Holy Name Church",
    "wheelChairAccess": false,
    "roomFloor": "Basement Little Room",
    "city": "New York",
    "state": "NY",
    "zipCode": "10025",
    "detailsBox": "Anniv. Last Thursday, Fri=Promises, Sat=As Bill Sees It"
  },
  {
    "meetingID": "291",
    "streetAddress": "26 West 84th Street",
    "buildingName": "Church of St. Matthew & St. Timothy",
    "wheelChairAccess": true,
    "roomFloor": "",
    "city": "New York",
    "state": "NY",
    "zipCode": "10024",
    "detailsBox": "Interpreted for the Deaf and Hard of Hearing No meetings on holidays On Ground Floor Mon. & Wed.; Basement on Thurs."
  },
  {
    "meetingID": "305",
    "streetAddress": "5 West 63rd Street",
    "buildingName": "West Side YMCA",
    "wheelChairAccess": false,
    "roomFloor": "Basement Room D",
    "city": "New York",
    "state": "NY",
    "zipCode": "10023",
    "detailsBox": ""
  },
  {
    "meetingID": "313",
    "streetAddress": "552 West End Avenue",
    "buildingName": "St. Ignatius Church",
    "wheelChairAccess": false,
    "roomFloor": "Basement",
    "city": "New York",
    "state": "NY",
    "zipCode": "10024",
    "detailsBox": "Anniv.  Last Sunday"
  },
  {
    "meetingID": "1511",
    "streetAddress": "164 West 74 Street",
    "buildingName": "Phoenix House",
    "wheelChairAccess": false,
    "roomFloor": "1st Floor (ask at Front Desk)",
    "city": "New York",
    "state": "NY",
    "zipCode": "10024",
    "detailsBox": ""
  },
  {
    "meetingID": "319",
    "streetAddress": "340 West 85th Street",
    "buildingName": "Volunteers of America",
    "wheelChairAccess": false,
    "roomFloor": "Basement",
    "city": "New York",
    "state": "NY",
    "zipCode": "10024",
    "detailsBox": "Living Sober"
  },
  {
    "meetingID": "351",
    "streetAddress": "368 West End Avenue",
    "buildingName": "West End Collegiate Church",
    "wheelChairAccess": false,
    "roomFloor": "1st Floor",
    "city": "New York",
    "state": "NY",
    "zipCode": "10024",
    "detailsBox": "All Meetings Are Non-Smoking."
  },
  {
    "meetingID": "355",
    "streetAddress": "152 West 71st Street",
    "buildingName": "Blessed Sacrament Church Rectory",
    "wheelChairAccess": false,
    "roomFloor": "",
    "city": "New York",
    "state": "NY",
    "zipCode": "10023",
    "detailsBox": "Alternates Betw.the Steps & Promises."
  },
  {
    "meetingID": "372",
    "streetAddress": "5 West 63rd Street",
    "buildingName": "West Side YMCA",
    "wheelChairAccess": false,
    "roomFloor": "",
    "city": "New York",
    "state": "NY",
    "zipCode": "10023",
    "detailsBox": "Mens Meeting"
  },
  {
    "meetingID": "375",
    "streetAddress": "131 West 72nd Street",
    "buildingName": "",
    "wheelChairAccess": false,
    "roomFloor": "3rd Floor Room #2F",
    "city": "New York",
    "state": "NY",
    "zipCode": "10023",
    "detailsBox": "Round Robin Topic Meeting."
  },
  {
    "meetingID": "391",
    "streetAddress": "207 West 96th Street",
    "buildingName": "Holy Name Church",
    "wheelChairAccess": false,
    "roomFloor": "Basement Little Room",
    "city": "New York",
    "state": "NY",
    "zipCode": "10025",
    "detailsBox": "T Last Friday"
  },
  {
    "meetingID": "401",
    "streetAddress": "152 West 71st Street",
    "buildingName": "Blessed Sacrament Church Rectory",
    "wheelChairAccess": false,
    "roomFloor": "Ring Bell",
    "city": "New York",
    "state": "NY",
    "zipCode": "10023",
    "detailsBox": "10am=As Bill Sees It, 11:15am=Topic Meeting"
  },
  {
    "meetingID": "402",
    "streetAddress": "30 West 68th Street",
    "buildingName": "Stephen Wise Free Synagogue",
    "wheelChairAccess": true,
    "roomFloor": "Check security desk for Room #",
    "city": "New York",
    "state": "NY",
    "zipCode": "10023",
    "detailsBox": "S Last Thursday,  No Prayers."
  },
  {
    "meetingID": "1204",
    "streetAddress": "207 West 96th Street",
    "buildingName": "Holy Name Church",
    "wheelChairAccess": false,
    "roomFloor": "Basement Little Room",
    "city": "New York",
    "state": "NY",
    "zipCode": "10025",
    "detailsBox": "Issues of medication in recovery are discussed.  All are welcome."
  },
  {
    "meetingID": "409",
    "streetAddress": "263 West 86th Street",
    "buildingName": "Church of St. Paul & St. Andrew",
    "wheelChairAccess": true,
    "roomFloor": "1st Floor",
    "city": "New York",
    "state": "NY",
    "zipCode": "10024",
    "detailsBox": ""
  },
  {
    "meetingID": "411",
    "streetAddress": "306 West 102nd Street",
    "buildingName": "Addiction Institute",
    "wheelChairAccess": false,
    "roomFloor": "2nd Floor",
    "city": "New York",
    "state": "NY",
    "zipCode": "10025",
    "detailsBox": ""
  },
  {
    "meetingID": "412",
    "streetAddress": "152 West 71st Street",
    "buildingName": "Blessed Sacrament Church Rectory",
    "wheelChairAccess": false,
    "roomFloor": "NY",
    "city": "New York",
    "state": "NY",
    "zipCode": "10023",
    "detailsBox": ""
  },
  {
    "meetingID": "413",
    "streetAddress": "26 West 84th Street",
    "buildingName": "Church of St.Matthew & St. Timothy",
    "wheelChairAccess": false,
    "roomFloor": "Stanford Room (blue door)",
    "city": "New York",
    "state": "NY",
    "zipCode": "10024",
    "detailsBox": "Anniv. Meeting Last Saturday."
  },
  {
    "meetingID": "1583",
    "streetAddress": "595 Columbus Avenue",
    "buildingName": "Goddard Riverside Community Center",
    "wheelChairAccess": true,
    "roomFloor": "",
    "city": "New York",
    "state": "NY",
    "zipCode": "10024",
    "detailsBox": ""
  },
  {
    "meetingID": "417",
    "streetAddress": "306 West 102nd Street",
    "buildingName": "Trinity Halfway House",
    "wheelChairAccess": false,
    "roomFloor": "2nd Floor",
    "city": "New York",
    "state": "NY",
    "zipCode": "10025",
    "detailsBox": "S 2nd Wednesday"
  },
  {
    "meetingID": "423",
    "streetAddress": "213 West 82nd Street",
    "buildingName": "Holy Trinity Church",
    "wheelChairAccess": true,
    "roomFloor": "",
    "city": "New York",
    "state": "NY",
    "zipCode": "10024",
    "detailsBox": "Womens Meeting"
  },
  {
    "meetingID": "1488",
    "streetAddress": "152 West 71st Street",
    "buildingName": "Blessed Sacrament (Rectory)",
    "wheelChairAccess": false,
    "roomFloor": "",
    "city": "New York",
    "state": "NY",
    "zipCode": "10023",
    "detailsBox": "Wed= Alternate BB and Living Sober."
  },
  {
    "meetingID": "1487",
    "streetAddress": "152 West 71st Street",
    "buildingName": "",
    "wheelChairAccess": true,
    "roomFloor": "",
    "city": "New York",
    "state": "NY",
    "zipCode": "null",
    "detailsBox": ""
  },
  {
    "meetingID": "428",
    "streetAddress": "152 West 71st Street",
    "buildingName": "Blessed Sacrament (Rectory)",
    "wheelChairAccess": true,
    "roomFloor": "",
    "city": "New York",
    "state": "NY",
    "zipCode": "10023",
    "detailsBox": "Womens Meeting"
  },
  {
    "meetingID": "429",
    "streetAddress": "160 Central Park West",
    "buildingName": "Universalist Church",
    "wheelChairAccess": false,
    "roomFloor": "Downstairs",
    "city": "New York",
    "state": "NY",
    "zipCode": "10023",
    "detailsBox": "Womens Meeting"
  },
  {
    "meetingID": "430",
    "streetAddress": "207 West 96th Street",
    "buildingName": "Holy Name Church",
    "wheelChairAccess": false,
    "roomFloor": "Basement Little Room",
    "city": "New York",
    "state": "NY",
    "zipCode": "10025",
    "detailsBox": ""
  }
]